NORAD_CAT_ID,OBJECT_NAME,OBJECT_TYPE,EPOCH,MEAN_MOTION,ECCENTRICITY,INCLINATION,RA_OF_ASC_NODE,ARG_OF_PERICENTER,MEAN_ANOMALY,BSTAR,MEAN_MOTION_DOT,MEAN_MOTION_DDOT,TLE_LINE0,TLE_LINE1,TLE_LINE2,SEMIMAJOR_AXIS,PERIOD,APOGEE,PERIGEE,DECAYED
51890.0,STARLINK-3519,PAYLOAD,2022-06-27 22:00:00,15.08836321,0.0002022,53.2183,302.9692,45.9952,288.5531,-0.00069195,-0.00011283,0.0,0 STARLINK-3519,1 51890U 22022AQ  22178.91667824 -.00011283  00000-0 -69195-3 0  9994,2 51890  53.2183 302.9692 0002022  45.9952 288.5531 15.08836321 19322,6917.892,95.438,541.155,538.3580000000002,0.0
51890.0,STARLINK-3519,PAYLOAD,2022-06-28 14:00:01,15.08838713,0.0002029,53.2185,299.9769,49.5229,308.185,-0.0011537,-0.00018602,0.0,0 STARLINK-3519,1 51890U 22022AQ  22179.58334491 -.00018602  00000-0 -11537-2 0  9997,2 51890  53.2185 299.9769 0002029  49.5229 308.1850 15.08838713  1307,6917.884,95.438,541.153,538.346,0.0
51890.0,STARLINK-3519,PAYLOAD,2022-06-28 22:00:00,15.08848843,0.0002034,53.2181,298.4804,46.9442,322.3467,-0.0012751,-0.00020529,0.0,0 STARLINK-3519,1 51890U 22022AQ  22179.91667824 -.00020529  00000-0 -12751-2 0  9993,2 51890  53.2181 298.4804 0002034  46.9442 322.3467 15.08848843 19475,6917.853,95.437,541.125,538.311,0.0
51890.0,STARLINK-3519,PAYLOAD,2022-06-29 14:00:01,15.08849998,0.0002089,53.2183,295.4883,49.8325,342.6495,-0.0010791,-0.00017426,0.0,0 STARLINK-3519,1 51890U 22022AQ  22180.58334491 -.00017426  00000-0 -10791-2 0  9993,2 51890  53.2183 295.4883 0002089  49.8325 342.6495 15.08849998  1304,6917.85,95.437,541.16,538.27,0.0
51890.0,STARLINK-3519,PAYLOAD,2022-06-29 22:00:00,15.08862396,0.0002077,53.2181,293.9916,47.5228,356.5555,-0.0014933,-0.00023991,0.0,0 STARLINK-3519,1 51890U 22022AQ  22180.91667824 -.00023991  00000-0 -14933-2 0  9995,2 51890  53.2181 293.9916 0002077  47.5228 356.5555 15.08862396  1304,6917.812,95.436,541.114,538.24,0.0
51890.0,STARLINK-3519,PAYLOAD,2022-06-30 14:00:01,15.08860417,0.0002097,53.2184,290.9995,48.5538,18.748,-0.0034085,-0.00054159,0.0,0 STARLINK-3519,1 51890U 22022AQ  22181.58334491 -.00054159  00000-0 -34085-2 0  9990,2 51890  53.2184 290.9995 0002097  48.5538  18.7480 15.08860417  1304,6917.818,95.436,541.134,538.232,0.0
51890.0,STARLINK-3519,PAYLOAD,2022-06-30 22:00:00,15.08847409,0.0002042,53.2183,289.5028,45.861,33.0339,-0.0016942999999999,-0.00027158,0.0,0 STARLINK-3519,1 51890U 22022AQ  22181.91667824 -.00027158  00000-0 -16943-2 0  9998,2 51890  53.2183 289.5028 0002042  45.8610  33.0339 15.08847409 19774,6917.858,95.437,541.135,538.31,0.0
51890.0,STARLINK-3519,PAYLOAD,2022-07-01 14:00:01,15.08845217,0.0002124,53.2186,286.5109,47.971,54.1153,-0.00062563,-0.00010233,0.0,0 STARLINK-3519,1 51890U 22022AQ  22182.58334491 -.00010233  00000-0 -62563-3 0  9999,2 51890  53.2186 286.5109 0002124  47.9710  54.1153 15.08845217 19873,6917.864000000001,95.437,541.1990000000002,538.26,0.0
51890.0,STARLINK-3519,PAYLOAD,2022-07-01 22:00:00,15.08868277,0.000206,53.2185,285.014,46.3955,67.283,-0.0027842,-0.00044362,0.0,0 STARLINK-3519,1 51890U 22022AQ  22182.91667824 -.00044362  00000-0 -27842-2 0  9995,2 51890  53.2185 285.0140 0002060  46.3955  67.2830 15.08868277  1301,6917.794,95.436,541.0840000000002,538.234,0.0
51890.0,STARLINK-3519,PAYLOAD,2022-07-02 14:00:01,15.08829693,0.0002059,53.2187,282.0222,45.786,91.0943,-0.00016191,-2.863e-05,0.0,0 STARLINK-3519,1 51890U 22022AQ  22183.58334491 -.00002863  00000-0 -16191-3 0  9996,2 51890  53.2187 282.0222 0002059  45.7860  91.0943 15.08829693  1306,6917.9119999999975,95.438,541.201,538.352,0.0
51890.0,STARLINK-3519,PAYLOAD,2022-07-02 22:00:00,15.08860959,0.0001993,53.2184,280.5251,45.3596,103.1117,-0.0014783,-0.00023752,0.0,0 STARLINK-3519,1 51890U 22022AQ  22183.91667824 -.00023752  00000-0 -14783-2 0  9996,2 51890  53.2184 280.5251 0001993  45.3596 103.1117 15.08860959 20079,6917.816,95.436,541.06,538.303,0.0
51890.0,STARLINK-3519,PAYLOAD,2022-07-03 14:00:01,15.08867211,0.0001993,53.2185,277.5334,44.6312,127.0602,-0.0027497,-0.00043817,0.0,0 STARLINK-3519,1 51890U 22022AQ  22184.58334491 -.00043817  00000-0 -27497-2 0  9991,2 51890  53.2185 277.5334 0001993  44.6312 127.0602 15.08867211 20179,6917.797,95.436,541.0409999999998,538.284,0.0
51890.0,STARLINK-3519,PAYLOAD,2022-07-03 22:00:00,15.08844923,0.0001804,53.2181,276.036,41.9922,141.3051,-0.0040546,-0.00064251,0.0,0 STARLINK-3519,1 51890U 22022AQ  22184.91667824 -.00064251  00000-0 -40546-2 0  9992,2 51890  53.2181 276.0360 0001804  41.9922 141.3051 15.08844923  1302,6917.865,95.437,540.9780000000002,538.482,0.0
51890.0,STARLINK-3519,PAYLOAD,2022-07-04 14:00:01,15.08807136,0.000187,53.218,273.0446,41.2262,165.2095,0.00072254,0.0001122,0.0,0 STARLINK-3519,1 51890U 22022AQ  22185.58334491  .00011220  00000-0  72254-3 0  9995,2 51890  53.2180 273.0446 0001870  41.2262 165.2095 15.08807136  1304,6917.981,95.44,541.14,538.552,0.0
51890.0,STARLINK-3519,PAYLOAD,2022-07-04 22:00:00,15.08838516,0.0001759,53.2175,271.5472,42.0748,175.9249,-0.0017685,-0.00028323,0.0,0 STARLINK-3519,1 51890U 22022AQ  22185.91667824 -.00028323  00000-0 -17685-2 0  9991,2 51890  53.2175 271.5472 0001759  42.0748 175.9249 15.08838516  1309,6917.885,95.438,540.967,538.533,0.0
51890.0,STARLINK-3519,PAYLOAD,2022-07-05 14:00:01,15.08820948,0.0001886,53.2174,268.5558,41.9516,199.2142,0.0012915,0.00020315,0.0,0 STARLINK-3519,1 51890U 22022AQ  22186.58334491  .00020315  00000-0  12915-2 0  9998,2 51890  53.2174 268.5558 0001886  41.9516 199.2142 15.08820948  1302,6917.939,95.439,541.1080000000002,538.499,0.0
51890.0,STARLINK-3519,PAYLOAD,2022-07-05 22:00:00,15.08848768,0.0001766,53.2171,267.0581,42.9738,209.7693,-0.0018319,-0.00029332,0.0,0 STARLINK-3519,1 51890U 22022AQ  22186.91667824 -.00029332  00000-0 -18319-2 0  9998,2 51890  53.2171 267.0581 0001766  42.9738 209.7693 15.08848768 20526,6917.854,95.437,540.94,538.497,0.0
51890.0,STARLINK-3519,PAYLOAD,2022-07-06 14:00:01,15.08826587,0.0001933,53.2171,264.0667,42.206,233.7282,0.0016005,0.00025267,0.0,0 STARLINK-3519,1 51890U 22022AQ  22187.58334491  .00025267  00000-0  16005-2 0  9994,2 51890  53.2171 264.0667 0001933  42.2060 233.7282 15.08826587 20633,6917.920999999999,95.438,541.124,538.4490000000002,0.0
51890.0,STARLINK-3519,PAYLOAD,2022-07-06 22:19:14,15.08834744,0.0001838,53.219,262.5086,45.137,314.9771,0.00013295,1.828e-05,0.0,0 STARLINK-3519,1 51890U 22022AQ  22187.93003167  .00001828  00000-0  13295-3 0  9992,2 51890  53.2190 262.5086 0001838  45.1370 314.9771 15.08834744 20686,6917.896,95.438,541.033,538.49,0.0
51890.0,STARLINK-3519,PAYLOAD,2022-07-07 11:02:19,15.08843404,0.0001849,53.2187,260.1297,44.99,315.1242,0.00012129,1.643e-05,0.0,0 STARLINK-3519,1 51890U 22022AQ  22188.45994726  .00001643  00000-0  12129-3 0  9990,2 51890  53.2187 260.1297 0001849  44.9900 315.1242 15.08843404 20766,6917.87,95.437,541.014,538.456,0.0
51890.0,STARLINK-3519,PAYLOAD,2022-07-07 22:00:00,15.08856111,0.0001823,53.2174,258.0795,41.2648,281.0868,-0.0029842,-0.0004749,0.0,0 STARLINK-3519,1 51890U 22022AQ  22188.91667824 -.00047490  00000-0 -29842-2 0  9998,2 51890  53.2174 258.0795 0001823  41.2648 281.0868 15.08856111  1305,6917.831,95.437,540.957,538.435,0.0
51890.0,STARLINK-3519,PAYLOAD,2022-07-08 14:00:01,15.088387699999998,0.0002025,53.2177,255.0881,39.2245,306.3501,0.0030471,0.0004854,0.0,0 STARLINK-3519,1 51890U 22022AQ  22189.58334491  .00048540  00000-0  30471-2 0  9998,2 51890  53.2177 255.0881 0002025  39.2245 306.3501 15.08838770  1302,6917.884,95.438,541.15,538.3480000000002,0.0
51890.0,STARLINK-3519,PAYLOAD,2022-07-08 22:00:01,15.0888233,0.0001867,53.2178,253.59,40.4057,316.848,-0.0016804,-0.00026963,0.0,0 STARLINK-3519,1 51890U 22022AQ  22189.91668981 -.00026963  00000-0 -16804-2 0  9990,2 51890  53.2178 253.5900 0001867  40.4057 316.8480 15.08882330  1309,6917.751,95.435,540.908,538.3240000000002,0.0
51890.0,STARLINK-3519,PAYLOAD,2022-07-09 06:00:00,15.08874627,0.0002006,53.2178,252.0919,46.0523,322.7091,-0.011027,-0.00171797,0.0,0 STARLINK-3519,1 51890U 22022AQ  22190.25001157 -.00171797  00000-0 -11027-1 0  9992,2 51890  53.2178 252.0919 0002006  46.0523 322.7091 15.08874627 21035,6917.775,95.435,541.0269999999998,538.252,0.0
51890.0,STARLINK-3519,PAYLOAD,2022-07-09 14:00:01,15.08834999,0.0002127,53.2181,250.5991,41.1218,339.2405,-3.2548e-05,-8.06e-06,0.0,0 STARLINK-3519,1 51890U 22022AQ  22190.58334491 -.00000806  00000-0 -32548-4 0  9994,2 51890  53.2181 250.5991 0002127  41.1218 339.2405 15.08834999  1301,6917.896,95.438,541.232,538.289,0.0
51890.0,STARLINK-3519,PAYLOAD,2022-07-09 16:00:00,15.08838936,0.0002118,53.2179,250.2248,39.537,73.7224,-0.00083572,-0.00013564,0.0,0 STARLINK-3519,1 51890U 22022AQ  22190.66667824 -.00013564  00000-0 -83572-3 0  9999,2 51890  53.2179 250.2248 0002118  39.5370  73.7224 15.08838936 21092,6917.884,95.438,541.214,538.283,0.0
51890.0,STARLINK-3519,PAYLOAD,2022-07-09 20:00:01,15.08844435,0.0001998,53.2181,249.4756,41.0674,257.9865,-0.0030574,-0.00048626,0.0,0 STARLINK-3519,1 51890U 22022AQ  22190.83334491 -.00048626  00000-0 -30574-2 0  9999,2 51890  53.2181 249.4756 0001998  41.0674 257.9865 15.08844435  1309,6917.8669999999975,95.437,541.114,538.35,0.0
51890.0,STARLINK-3519,PAYLOAD,2022-07-10 14:00:01,15.08805169,0.0002101,53.2182,246.1104,39.9059,15.203,0.0027701,0.00044032,0.0,0 STARLINK-3519,1 51890U 22022AQ  22191.58334491  .00044032  00000-0  27701-2 0  9995,2 51890  53.2182 246.1104 0002101  39.9059  15.2030 15.08805169  1301,6917.986999999999,95.44,541.305,538.398,0.0
51890.0,STARLINK-3519,PAYLOAD,2022-07-10 22:00:00,15.08826265,0.0001917,53.2182,244.6124,43.2722,23.417,0.00057553,8.88e-05,0.0,0 STARLINK-3519,1 51890U 22022AQ  22191.91667824  .00008880  00000-0  57553-3 0  9991,2 51890  53.2182 244.6124 0001917  43.2722  23.4170 15.08826265 21280,6917.922,95.438,541.114,538.461,0.0
